[{"OBJECT_NAME":"YUNHAI-1 03","OBJECT_ID":"2022-115A","EPOCH":"2026-03-09T22:42:18.502272","MEAN_MOTION":14.32645592,"ECCENTRICITY":0.00045037,"INCLINATION":98.5539,"RA_OF_ASC_NODE":68.3628,"ARG_OF_PERICENTER":355.0463,"MEAN_ANOMALY":5.0676,"EPHEMERIS_TYPE":0,"CLASSIFICATION_TYPE":"U","NORAD_CAT_ID":53877,"ELEMENT_SET_NO":999,"REV_AT_EPOCH":18130,"BSTAR":0.00016609215,"MEAN_MOTION_DOT":4.08e-6,"MEAN_MOTION_DDOT":0},{"OBJECT_NAME":"COSMOS 2251 DEB","OBJECT_ID":"1993-036ASK","EPOCH":"2026-03-08T11:57:00.807264","MEAN_MOTION":14.3605965,"ECCENTRICITY":0.00485244,"INCLINATION":74.0378,"RA_OF_ASC_NODE":126.9538,"ARG_OF_PERICENTER":208.407,"MEAN_ANOMALY":151.4437,"EPHEMERIS_TYPE":0,"CLASSIFICATION_TYPE":"U","NORAD_CAT_ID":35789,"ELEMENT_SET_NO":999,"REV_AT_EPOCH":62458,"BSTAR":0.00013478389,"MEAN_MOTION_DOT":3.71e-6,"MEAN_MOTION_DDOT":0}]
